{"type": "FeatureCollection", "features": [ {"type": "Feature", "properties": {"norad_id": 43622, "name": "BEIDOU-3 M13 (C32)", "group": "beidou", "lat": -4.032555784816517, "lon": 65.77392937814406, "alt_km": 21519.32678865387, "timestamp": "2025-12-24T11:33:00.282118+00:00", "meta": {"OBJECT_NAME": "BEIDOU-3 M13 (C32)", "OBJECT_ID": "2018-072A", "EPOCH": "2025-12-22T08:10:31.412640", "MEAN_MOTION": 1.86231166, "ECCENTRICITY": 0.00064111, "INCLINATION": 56.4667, "RA_OF_ASC_NODE": 68.5024, "ARG_OF_PERICENTER": 297.4685, "MEAN_ANOMALY": 62.5173, "EPHEMERIS_TYPE": 0, "CLASSIFICATION_TYPE": "U", "NORAD_CAT_ID": 43622, "ELEMENT_SET_NO": 999, "REV_AT_EPOCH": 4936, "BSTAR": 0, "MEAN_MOTION_DOT": -2.9e-07, "MEAN_MOTION_DDOT": 0}, "tle": {"line1": "1 43622U 18072A   25356.34064135 -.00000029  00000+0  00000+0 0  9992", "line2": "2 43622  56.4667  68.5024 0006411 297.4685  62.5173  1.86231166 49361"}}, "geometry": {"type": "Point", "coordinates": [65.77392937814406, -4.032555784816517]}}, {"type": "Feature", "properties": {"norad_id": 43623, "name": "BEIDOU-3 M14 (C33)", "group": "beidou", "lat": 56.209442799010056, "lon": 150.15191654205708, "alt_km": 21526.3279005525, "timestamp": "2025-12-24T11:33:00.282130+00:00", "meta": {"OBJECT_NAME": "BEIDOU-3 M14 (C33)", "OBJECT_ID": "2018-072B", "EPOCH": "2025-12-23T06:43:13.861056", "MEAN_MOTION": 1.86231163, "ECCENTRICITY": 0.00035931, "INCLINATION": 56.4696, "RA_OF_ASC_NODE": 68.4654, "ARG_OF_PERICENTER": 327.0772, "MEAN_ANOMALY": 32.9541, "EPHEMERIS_TYPE": 0, "CLASSIFICATION_TYPE": "U", "NORAD_CAT_ID": 43623, "ELEMENT_SET_NO": 999, "REV_AT_EPOCH": 4937, "BSTAR": 0, "MEAN_MOTION_DOT": -2.6e-07, "MEAN_MOTION_DDOT": 0}, "tle": {"line1": "1 43623U 18072B   25357.28002154 -.00000026  00000+0  00000+0 0  9997", "line2": "2 43623  56.4696  68.4654 0003593 327.0772  32.9541  1.86231163 49375"}}, "geometry": {"type": "Point", "coordinates": [150.15191654205708, 56.209442799010056]}}, {"type": "Feature", "properties": {"norad_id": 43647, "name": "BEIDOU-3 M16 (C35)", "group": "beidou", "lat": -16.411844689754407, "lon": -66.14250736112842, "alt_km": 21514.47840654792, "timestamp": "2025-12-24T11:33:00.282142+00:00", "meta": {"OBJECT_NAME": "BEIDOU-3 M16 (C35)", "OBJECT_ID": "2018-078A", "EPOCH": "2025-12-23T23:23:29.633856", "MEAN_MOTION": 1.86232286, "ECCENTRICITY": 0.000745, "INCLINATION": 54.2515, "RA_OF_ASC_NODE": 306.1286, "ARG_OF_PERICENTER": 20.4306, "MEAN_ANOMALY": 339.606, "EPHEMERIS_TYPE": 0, "CLASSIFICATION_TYPE": "U", "NORAD_CAT_ID": 43647, "ELEMENT_SET_NO": 999, "REV_AT_EPOCH": 4889, "BSTAR": 0, "MEAN_MOTION_DOT": -5.2e-07, "MEAN_MOTION_DDOT": 0}, "tle": {"line1": "1 43647U 18078A   25357.97464854 -.00000052  00000+0  00000+0 0  9993", "line2": "2 43647  54.2515 306.1286 0007450  20.4306 339.6060  1.86232286 48899"}}, "geometry": {"type": "Point", "coordinates": [-66.14250736112842, -16.411844689754407]}}, {"type": "Feature", "properties": {"norad_id": 43648, "name": "BEIDOU-3 M15 (C34)", "group": "beidou", "lat": -50.92548680185796, "lon": -171.49127189279216, "alt_km": 21540.262952203226, "timestamp": "2025-12-24T11:33:00.282153+00:00", "meta": {"OBJECT_NAME": "BEIDOU-3 M15 (C34)", "OBJECT_ID": "2018-078B", "EPOCH": "2025-12-23T00:43:09.285312", "MEAN_MOTION": 1.86232355, "ECCENTRICITY": 0.00040598, "INCLINATION": 54.2483, "RA_OF_ASC_NODE": 306.1625, "ARG_OF_PERICENTER": 19.7636, "MEAN_ANOMALY": 340.2561, "EPHEMERIS_TYPE": 0, "CLASSIFICATION_TYPE": "U", "NORAD_CAT_ID": 43648, "ELEMENT_SET_NO": 999, "REV_AT_EPOCH": 4889, "BSTAR": 0, "MEAN_MOTION_DOT": -5.4e-07, "MEAN_MOTION_DDOT": 0}, "tle": {"line1": "1 43648U 18078B   25357.02996858 -.00000054  00000+0  00000+0 0  9996", "line2": "2 43648  54.2483 306.1625 0004059  19.7636 340.2561  1.86232355 48891"}}, "geometry": {"type": "Point", "coordinates": [-171.49127189279216, -50.92548680185796]}}, {"type": "Feature", "properties": {"norad_id": 43683, "name": "BEIDOU-3 G1 (C59)", "group": "beidou", "lat": -2.1777635014377537, "lon": 46.47742803168732, "alt_km": 35788.80868698398, "timestamp": "2025-12-24T11:33:00.282165+00:00", "meta": {"OBJECT_NAME": "BEIDOU-3 G1 (C59)", "OBJECT_ID": "2018-085A", "EPOCH": "2025-12-24T03:28:38.546112", "MEAN_MOTION": 1.00266949, "ECCENTRICITY": 0.0001466, "INCLINATION": 2.6345, "RA_OF_ASC_NODE": 102.6299, "ARG_OF_PERICENTER": 43.8286, "MEAN_ANOMALY": 138.5945, "EPHEMERIS_TYPE": 0, "CLASSIFICATION_TYPE": "U", "NORAD_CAT_ID": 43683, "ELEMENT_SET_NO": 999, "REV_AT_EPOCH": 2630, "BSTAR": 0, "MEAN_MOTION_DOT": -2.59e-06, "MEAN_MOTION_DDOT": 0}, "tle": {"line1": "1 43683U 18085A   25358.14489058 -.00000259  00000+0  00000+0 0  9993", "line2": "2 43683   2.6345 102.6299 0001466  43.8286 138.5945  1.00266949 26306"}}, "geometry": {"type": "Point", "coordinates": [46.47742803168732, -2.1777635014377537]}}, {"type": "Feature", "properties": {"norad_id": 43706, "name": "BEIDOU-3 M17 (C36)", "group": "beidou", "lat": 26.489534793269637, "lon": -12.885819179394394, "alt_km": 21540.989069291274, "timestamp": "2025-12-24T11:33:00.282177+00:00", "meta": {"OBJECT_NAME": "BEIDOU-3 M17 (C36)", "OBJECT_ID": "2018-093A", "EPOCH": "2025-12-22T11:03:17.644896", "MEAN_MOTION": 1.86228432, "ECCENTRICITY": 0.00060427, "INCLINATION": 54.173, "RA_OF_ASC_NODE": 188.2918, "ARG_OF_PERICENTER": 307.405, "MEAN_ANOMALY": 284.4943, "EPHEMERIS_TYPE": 0, "CLASSIFICATION_TYPE": "U", "NORAD_CAT_ID": 43706, "ELEMENT_SET_NO": 999, "REV_AT_EPOCH": 4824, "BSTAR": 0, "MEAN_MOTION_DOT": 9.4e-07, "MEAN_MOTION_DDOT": 0}, "tle": {"line1": "1 43706U 18093A   25356.46062089  .00000094  00000+0  00000+0 0  9998", "line2": "2 43706  54.1730 188.2918 0006042 307.4050 284.4943  1.86228432 48248"}}, "geometry": {"type": "Point", "coordinates": [-12.885819179394394, 26.489534793269637]}}, {"type": "Feature", "properties": {"norad_id": 43707, "name": "BEIDOU-3 M18 (C37)", "group": "beidou", "lat": -44.22118737664689, "lon": 52.91452283760788, "alt_km": 21540.760827746864, "timestamp": "2025-12-24T11:33:00.282188+00:00", "meta": {"OBJECT_NAME": "BEIDOU-3 M18 (C37)", "OBJECT_ID": "2018-093B", "EPOCH": "2025-12-23T01:12:21.238848", "MEAN_MOTION": 1.86226616, "ECCENTRICITY": 0.0006147, "INCLINATION": 54.1741, "RA_OF_ASC_NODE": 188.2636, "ARG_OF_PERICENTER": 354.1254, "MEAN_ANOMALY": 5.9078, "EPHEMERIS_TYPE": 0, "CLASSIFICATION_TYPE": "U", "NORAD_CAT_ID": 43707, "ELEMENT_SET_NO": 999, "REV_AT_EPOCH": 4825, "BSTAR": 0, "MEAN_MOTION_DOT": 9.6e-07, "MEAN_MOTION_DDOT": 0}, "tle": {"line1": "1 43707U 18093B   25357.05024582  .00000096  00000+0  00000+0 0  9993", "line2": "2 43707  54.1741 188.2636 0006147 354.1254   5.9078  1.86226616 48257"}}, "geometry": {"type": "Point", "coordinates": [52.91452283760788, -44.22118737664689]}}, {"type": "Feature", "properties": {"norad_id": 44231, "name": "BEIDOU-2 G8 (C01)", "group": "beidou", "lat": -0.6644831251570248, "lon": 51.1081705207674, "alt_km": 35777.67010672417, "timestamp": "2025-12-24T11:33:00.282201+00:00", "meta": {"OBJECT_NAME": "BEIDOU-2 G8 (C01)", "OBJECT_ID": "2019-027A", "EPOCH": "2025-12-24T00:58:21.629568", "MEAN_MOTION": 1.00274951, "ECCENTRICITY": 0.0008303, "INCLINATION": 1.6888, "RA_OF_ASC_NODE": 74.7343, "ARG_OF_PERICENTER": 259.1988, "MEAN_ANOMALY": 277.9784, "EPHEMERIS_TYPE": 0, "CLASSIFICATION_TYPE": "U", "NORAD_CAT_ID": 44231, "ELEMENT_SET_NO": 999, "REV_AT_EPOCH": 2432, "BSTAR": 0, "MEAN_MOTION_DOT": -2.26e-06, "MEAN_MOTION_DDOT": 0}, "tle": {"line1": "1 44231U 19027A   25358.04052812 -.00000226  00000+0  00000+0 0  9997", "line2": "2 44231   1.6888  74.7343 0008303 259.1988 277.9784  1.00274951 24325"}}, "geometry": {"type": "Point", "coordinates": [51.1081705207674, -0.6644831251570248]}}, {"type": "Feature", "properties": {"norad_id": 44337, "name": "BEIDOU-3 IGSO-2 (C39)", "group": "beidou", "lat": -35.98364506455126, "lon": 10.703520571162608, "alt_km": 35645.894545742856, "timestamp": "2025-12-24T11:33:00.282213+00:00", "meta": {"OBJECT_NAME": "BEIDOU-3 IGSO-2 (C39)", "OBJECT_ID": "2019-035A", "EPOCH": "2025-12-23T20:34:24.431808", "MEAN_MOTION": 1.00267916, "ECCENTRICITY": 0.00378021, "INCLINATION": 55.2291, "RA_OF_ASC_NODE": 160.4037, "ARG_OF_PERICENTER": 202.4581, "MEAN_ANOMALY": 157.7229, "EPHEMERIS_TYPE": 0, "CLASSIFICATION_TYPE": "U", "NORAD_CAT_ID": 44337, "ELEMENT_SET_NO": 999, "REV_AT_EPOCH": 2391, "BSTAR": 0, "MEAN_MOTION_DOT": -7.4e-07, "MEAN_MOTION_DDOT": 0}, "tle": {"line1": "1 44337U 19035A   25357.85722722 -.00000074  00000+0  00000+0 0  9996", "line2": "2 44337  55.2291 160.4037 0037802 202.4581 157.7229  1.00267916 23910"}}, "geometry": {"type": "Point", "coordinates": [10.703520571162608, -35.98364506455126]}}, {"type": "Feature", "properties": {"norad_id": 44542, "name": "BEIDOU-3 M24 (C46)", "group": "beidou", "lat": -9.732244223231206, "lon": 15.684106139290483, "alt_km": 21555.662039041246, "timestamp": "2025-12-24T11:33:00.282225+00:00", "meta": {"OBJECT_NAME": "BEIDOU-3 M24 (C46)", "OBJECT_ID": "2019-061A", "EPOCH": "2025-12-23T15:47:40.430112", "MEAN_MOTION": 1.86229437, "ECCENTRICITY": 0.00095913, "INCLINATION": 54.4006, "RA_OF_ASC_NODE": 188.6475, "ARG_OF_PERICENTER": 26.0313, "MEAN_ANOMALY": 334.0556, "EPHEMERIS_TYPE": 0, "CLASSIFICATION_TYPE": "U", "NORAD_CAT_ID": 44542, "ELEMENT_SET_NO": 999, "REV_AT_EPOCH": 4252, "BSTAR": 0, "MEAN_MOTION_DOT": 9.9e-07, "MEAN_MOTION_DDOT": 0}, "tle": {"line1": "1 44542U 19061A   25357.65810683  .00000099  00000+0  00000+0 0  9991", "line2": "2 44542  54.4006 188.6475 0009591  26.0313 334.0556  1.86229437 42529"}}, "geometry": {"type": "Point", "coordinates": [15.684106139290483, -9.732244223231206]}}]}